DIRECTV 8               
1 28659U 05019A   26192.23260124  .00000008  00000+0  00000+0 0  9991
2 28659   0.0175  73.7083 0003034  50.7353 129.3828  1.00270972 77315
GALAXY 28 (G-28)        
1 28702U 05022A   26191.98921124 -.00000195  00000+0  00000+0 0  9997
2 28702   3.3570  78.6355 0002124  28.9581 150.3241  1.00273740 52215
SJ-7                    
1 28737U 05024A   26192.02608463  .00004905  00000+0  21827-3 0  9997
2 28737  97.7281 222.7748 0013907 312.8403  47.1663 15.21897530151652
THAICOM 4               
1 28786U 05028A   26192.20600196 -.00000355  00000+0  00000+0 0  9992
2 28786   0.3046  85.5483 0001407  11.2266  25.9951  1.00269937 52497
REIMEI (INDEX)          
1 28810U 05031B   26191.70129134  .00003306  00000+0  20063-3 0  9999
2 28810  98.0161 316.8281 0019915  35.3877 324.8669 15.11140130134545
ANIK F1R                
1 28868U 05036A   26192.23716740 -.00000073  00000+0  00000+0 0  9995
2 28868   4.3713  76.2806 0003747  25.9903 164.9564  1.00271322 46698
NAVSTAR 57 (USA 183)    
1 28874U 05038A   26191.29576271 -.00000006  00000+0  00000+0 0  9998
2 28874  54.8594 272.2441 0128168 296.3525  70.9409  2.00564004152307
SYRACUSE 3A             
1 28885U 05041B   26191.86129837  .00000133  00000+0  00000+0 0  9999
2 28885   4.7007  75.5496 0002742  28.0801 181.8358  1.00272200 75988
BEIJING 1               
1 28890U 05043A   26191.87438302  .00000263  00000+0  60052-4 0  9990
2 28890  98.2936 325.2231 0013912 203.1796 156.8779 14.63546692104114
SINAH 1                 
1 28893U 05043D   26191.83611025  .00000160  00000+0  39707-4 0  9993
2 28893  98.2887 326.3010 0014071 197.2965 162.7760 14.64173754103983
CUBESAT XI-V            
1 28895U 05043F   26191.36800381  .00000898  00000+0  14887-3 0  9997
2 28895  98.3010 347.4805 0015096 129.3634 230.8913 14.72694805105160
INMARSAT 4-F2           
1 28899U 05044A   26191.80922647 -.00000256  00000+0  00000+0 0  9998
2 28899   5.1237  43.6506 0002824  59.1327 260.7612  1.00271604 75752
COSMOS 2416 (RODNIK-S 1)
1 28908U 05048A   26191.29365956  .00000006  00000+0 -28376-4 0  9994
2 28908  82.4698 292.8827 0009201 117.3722 256.0183 12.55600977941808
METEOSAT-9 (MSG-2)      
1 28912U 05049B   26191.71844315  .00000124  00000+0  00000+0 0  9997
2 28912   9.4120  53.9304 0002029 357.9991 181.0196  1.00270013  7232
EUTELSAT 174A           
1 28924U 05052A   26191.68030913  .00000013  00000+0  00000+0 0  9998
2 28924   4.2752  76.2353 0005803  35.8490 235.3831  1.00270108 52560
ECHOSTAR 10             
1 28935U 06003A   26191.68762883 -.00000046  00000+0  00000+0 0  9992
2 28935   0.0401 299.8464 0001163 142.0548 344.0774  1.00270531 74695
SPAINSAT                
1 28945U 06007A   26191.28338866 -.00000207  00000+0  00000+0 0  9992
2 28945   0.6202  86.1406 0004659  21.8037 252.1056  1.00270562 74454
JCSAT-5A                
1 29045U 06010A   26192.14558906 -.00000322  00000+0  00000+0 0  9991
2 29045   1.1685  83.9537 0001670  21.5441   8.0120  1.00271254 74014
ASTRA 1KR               
1 29055U 06012A   26191.99842829  .00000127  00000+0  00000+0 0  9998
2 29055   0.5326  83.1980 0003255  23.4390 200.7250  1.00272791 45930
RESURS-DK 1             
1 29228U 06021A   26192.22838867  .00001017  00000+0  63072-4 0  9996
2 29228  69.9327 277.3163 0006874 275.5943  84.4439 15.13310988106211
GALAXY 16 (G-16)        
1 29236U 06023A   26192.24481307 -.00000120  00000+0  00000+0 0  9994
2 29236   0.0352 115.8060 0002451   3.1111 159.3696  1.00271352 73217
ARIRANG-2 (KOMPSAT-2)   
1 29268U 06031A   26192.21283593 -.00000079  00000+0 -63029-5 0  9992
2 29268  97.8317  15.4980 0014600   3.5584 107.0386 14.64673347 64995
EUTELSAT 33F            
1 29270U 06032A   26192.06641986  .00000161  00000+0  00000+0 0  9997
2 29270   1.7206  81.9774 0003418  24.9734 239.0087  1.00269643 47549
JCSAT-3A                
1 29272U 06033A   26192.20600196 -.00000338  00000+0  00000+0 0  9991
2 29272   0.0197 315.0610 0002482 173.0924   3.1191  1.00269838 47989
KOREASAT 5 (MUGUNGWHA 5)
1 29349U 06034A   26192.07128066 -.00000352  00000+0  00000+0 0  9999
2 29349   1.8439  82.6950 0001686  77.8299 267.1792  1.00271945 41555
HINODE (SOLAR-B)        
1 29479U 06041A   26192.03128985  .00000358  00000+0  69892-4 0  9991
2 29479  98.0548 207.8324 0016693 208.0803 151.9503 14.68654917 58377
NAVSTAR 58 (USA 190)    
1 29486U 06042A   26191.67072875  .00000045  00000+0  00000+0 0  9999
2 29486  54.7127 150.4066 0107055  55.0182 121.8872  2.00568451144861
DIRECTV 9S              
1 29494U 06043A   26192.20121845 -.00000109  00000+0  00000+0 0  9993
2 29494   2.4799  80.6131 0005005  32.0682 147.6685  1.00270960 51627
OPTUS D1                
1 29495U 06043B   26191.88218514 -.00000179  00000+0  00000+0 0  9994
2 29495   3.0928  79.3653 0003330  29.3344 289.6530  1.00270642 72352
SHIJIAN-6 02A (SJ-6 02A)
1 29505U 06046A   26192.16623152  .00003406  00000+0  17478-3 0  9995
2 29505  97.6357 233.4144 0004564  73.6994 286.4740 15.17218430 75902
SHIJIAN-6 02B (SJ-6 02B)
1 29506U 06046B   26192.20549847  .00000638  00000+0  54038-4 0  9997
2 29506  97.7156 221.1157 0013894 349.7985  10.2955 15.01433013 74349
