OBJECT_NAME,OBJECT_ID,EPOCH,MEAN_MOTION,ECCENTRICITY,INCLINATION,RA_OF_ASC_NODE,ARG_OF_PERICENTER,MEAN_ANOMALY,EPHEMERIS_TYPE,CLASSIFICATION_TYPE,NORAD_CAT_ID,ELEMENT_SET_NO,REV_AT_EPOCH,BSTAR,MEAN_MOTION_DOT,MEAN_MOTION_DDOT
DIRECTV 8,2005-019A,2026-07-11T05:34:56.747136,1.00270972,.0003034,0.0175,73.7083,50.7353,129.3828,0,U,28659,999,7731,0,.8E-7,0
GALAXY 28 (G-28),2005-022A,2026-07-10T23:44:27.851136,1.00273740,.0002124,3.3570,78.6355,28.9581,150.3241,0,U,28702,999,5221,0,-.195E-5,0
SJ-7,2005-024A,2026-07-11T00:37:33.712032,15.21897530,.0013907,97.7281,222.7748,312.8403,47.1663,0,U,28737,999,15165,.21827E-3,.4905E-4,0
THAICOM 4,2005-028A,2026-07-11T04:56:38.569344,1.00269937,.0001407,0.3046,85.5483,11.2266,25.9951,0,U,28786,999,5249,0,-.355E-5,0
REIMEI (INDEX),2005-031B,2026-07-10T16:49:51.571776,15.11140130,.0019915,98.0161,316.8281,35.3877,324.8669,0,U,28810,999,13454,.20063E-3,.3306E-4,0
ANIK F1R,2005-036A,2026-07-11T05:41:31.263360,1.00271322,.0003747,4.3713,76.2806,25.9903,164.9564,0,U,28868,999,4669,0,-.73E-6,0
NAVSTAR 57 (USA 183),2005-038A,2026-07-10T07:05:53.898144,2.00564004,.01281687,54.8594,272.2441,296.3525,70.9409,0,U,28874,999,15230,0,-.6E-7,0
SYRACUSE 3A,2005-041B,2026-07-10T20:40:16.179168,1.00272200,.0002742,4.7007,75.5496,28.0801,181.8358,0,U,28885,999,7598,0,.133E-5,0
BEIJING 1,2005-043A,2026-07-10T20:59:06.692928,14.63546692,.0013912,98.2936,325.2231,203.1796,156.8779,0,U,28890,999,10411,.60052E-4,.263E-5,0
SINAH 1,2005-043D,2026-07-10T20:03:59.925600,14.64173754,.0014071,98.2887,326.3010,197.2965,162.7760,0,U,28893,999,10398,.39707E-4,.16E-5,0
CUBESAT XI-V,2005-043F,2026-07-10T08:49:55.529184,14.72694805,.00150968,98.3010,347.4805,129.3634,230.8913,0,U,28895,999,10516,.14886521E-3,.898E-5,0
INMARSAT 4-F2,2005-044A,2026-07-10T19:25:17.167008,1.00271604,.0002824,5.1237,43.6506,59.1327,260.7612,0,U,28899,999,7575,0,-.256E-5,0
COSMOS 2416 (RODNIK-S 1),2005-048A,2026-07-10T07:02:52.185984,12.55600977,.00092015,82.4698,292.8827,117.3722,256.0183,0,U,28908,999,94180,-.28375811E-4,.6E-7,0
METEOSAT-9 (MSG-2),2005-049B,2026-07-10T17:14:33.488160,1.00270013,.0002029,9.4120,53.9304,357.9991,181.0196,0,U,28912,999,723,0,.124E-5,0
EUTELSAT 174A,2005-052A,2026-07-10T16:19:38.708832,1.00270108,.0005803,4.2752,76.2353,35.8490,235.3831,0,U,28924,999,5256,0,.13E-6,0
ECHOSTAR 10,2006-003A,2026-07-10T16:30:11.130912,1.00270531,.0001163,0.0401,299.8464,142.0548,344.0774,0,U,28935,999,7469,0,-.46E-6,0
SPAINSAT,2006-007A,2026-07-10T06:48:04.780224,1.00270562,.0004659,0.6202,86.1406,21.8037,252.1056,0,U,28945,999,7445,0,-.207E-5,0
JCSAT-5A,2006-010A,2026-07-11T03:29:38.894784,1.00271254,.000167,1.1685,83.9537,21.5441,8.0120,0,U,29045,999,7401,0,-.322E-5,0
ASTRA 1KR,2006-012A,2026-07-10T23:57:44.204256,1.00272791,.0003255,0.5326,83.1980,23.4390,200.7250,0,U,29055,999,4593,0,.127E-5,0
RESURS-DK 1,2006-021A,2026-07-11T05:28:52.781088,15.13310988,.0006874,69.9327,277.3163,275.5943,84.4439,0,U,29228,999,10621,.63072E-4,.1017E-4,0
GALAXY 16 (G-16),2006-023A,2026-07-11T05:52:31.849248,1.00271352,.0002451,0.0352,115.8060,3.1111,159.3696,0,U,29236,999,7321,0,-.12E-5,0
ARIRANG-2 (KOMPSAT-2),2006-031A,2026-07-11T05:06:29.024352,14.64673347,.00146,97.8317,15.4980,3.5584,107.0386,0,U,29268,999,6499,-.63029E-5,-.79E-6,0
EUTELSAT 33F,2006-032A,2026-07-11T01:35:38.675904,1.00269643,.0003418,1.7206,81.9774,24.9734,239.0087,0,U,29270,999,4754,0,.161E-5,0
JCSAT-3A,2006-033A,2026-07-11T04:56:38.569344,1.00269838,.0002482,0.0197,315.0610,173.0924,3.1191,0,U,29272,999,4798,0,-.338E-5,0
KOREASAT 5 (MUGUNGWHA 5),2006-034A,2026-07-11T01:42:38.649024,1.00271945,.0001686,1.8439,82.6950,77.8299,267.1792,0,U,29349,999,4155,0,-.352E-5,0
HINODE (SOLAR-B),2006-041A,2026-07-11T00:45:03.443040,14.68654917,.0016693,98.0548,207.8324,208.0803,151.9503,0,U,29479,999,5837,.69892E-4,.358E-5,0
NAVSTAR 58 (USA 190),2006-042A,2026-07-10T16:05:50.964000,2.00568451,.0107055,54.7127,150.4066,55.0182,121.8872,0,U,29486,999,14486,0,.45E-6,0
DIRECTV 9S,2006-043A,2026-07-11T04:49:45.274080,1.00270960,.0005005,2.4799,80.6131,32.0682,147.6685,0,U,29494,999,5162,0,-.109E-5,0
OPTUS D1,2006-043B,2026-07-10T21:10:20.796096,1.00270642,.000333,3.0928,79.3653,29.3344,289.6530,0,U,29495,999,7235,0,-.179E-5,0
SHIJIAN-6 02A (SJ-6 02A),2006-046A,2026-07-11T03:59:22.403328,15.17218430,.0004564,97.6357,233.4144,73.6994,286.4740,0,U,29505,999,7590,.17478E-3,.3406E-4,0
SHIJIAN-6 02B (SJ-6 02B),2006-046B,2026-07-11T04:55:55.067808,15.01433013,.0013894,97.7156,221.1157,349.7985,10.2955,0,U,29506,999,7434,.54038E-4,.638E-5,0
